IRIDIUM 171             
1 43929U 19002H   25304.32058798  .00000312  00000+0  10418-3 0  9997
2 43929  86.3941  89.5346 0001801  96.0902 264.0499 14.34218935356155
IRIDIUM 170             
1 43930U 19002J   25303.91009179  .00001655  00000+0  25849-3 0  9997
2 43930  86.6052  89.4292 0002256  90.0151 270.1325 14.72255201365523
IRIDIUM 167             
1 43931U 19002K   25303.89563448  .00000160  00000+0  49979-4 0  9990
2 43931  86.3930  89.4515 0001645  89.2023 270.9362 14.34218178356094
IRIDIUM 181             
1 56726U 23068S   25304.11156117  .00000478  00000+0  13600-3 0  9993
2 56726  86.4521 152.5290 0001955 102.2128 257.9292 14.43321119129393
IRIDIUM 177             
1 56727U 23068T   25303.61232213  .00001753  00000+0  22715-3 0  9994
2 56727  86.1941  77.8100 0002228  86.8235 273.3241 14.80233522132409
IRIDIUM 174             
1 56728U 23068U   25303.89772530  .00001679  00000+0  26238-3 0  9997
2 56728  86.6056  89.5579 0002542  82.1394 278.0112 14.72244423132284
IRIDIUM 178             
1 56729U 23068V   25303.93942672  .00000344  00000+0  41822-4 0  9994
2 56729  86.6504 121.1859 0001971  87.0281 273.1166 14.80227556132452
IRIDIUM 179             
1 56730U 23068W   25303.93405135  .00000902  00000+0  11528-3 0  9993
2 56730  86.6759 129.4803 0001594  88.4203 271.7201 14.80238455132450
