<?xml version="1.0" encoding="UTF-8"?>
<ndm xmlns:xsi="http://www.w3.org/2001/XMLSchema-instance" xsi:noNamespaceSchemaLocation="https://sanaregistry.org/r/ndmxml_unqualified/ndmxml-2.0.0-master-2.0.xsd">
<omm id="CCSDS_OMM_VERS" version="2.0">
<header><CREATION_DATE/><ORIGINATOR/></header><body><segment><metadata><OBJECT_NAME>IRIDIUM 171</OBJECT_NAME><OBJECT_ID>2019-002H</OBJECT_ID><CENTER_NAME>EARTH</CENTER_NAME><REF_FRAME>TEME</REF_FRAME><TIME_SYSTEM>UTC</TIME_SYSTEM><MEAN_ELEMENT_THEORY>SGP4</MEAN_ELEMENT_THEORY></metadata><data><meanElements><EPOCH>2025-10-31T07:41:38.801472</EPOCH><MEAN_MOTION>14.34218935</MEAN_MOTION><ECCENTRICITY>.00018011</ECCENTRICITY><INCLINATION>86.3941</INCLINATION><RA_OF_ASC_NODE>89.5346</RA_OF_ASC_NODE><ARG_OF_PERICENTER>96.0902</ARG_OF_PERICENTER><MEAN_ANOMALY>264.0499</MEAN_ANOMALY></meanElements><tleParameters><EPHEMERIS_TYPE>0</EPHEMERIS_TYPE><CLASSIFICATION_TYPE>U</CLASSIFICATION_TYPE><NORAD_CAT_ID>43929</NORAD_CAT_ID><ELEMENT_SET_NO>999</ELEMENT_SET_NO><REV_AT_EPOCH>35615</REV_AT_EPOCH><BSTAR>.10418463E-3</BSTAR><MEAN_MOTION_DOT>.312E-5</MEAN_MOTION_DOT><MEAN_MOTION_DDOT>0</MEAN_MOTION_DDOT></tleParameters></data></segment></body></omm>
<omm id="CCSDS_OMM_VERS" version="2.0">
<header><CREATION_DATE/><ORIGINATOR/></header><body><segment><metadata><OBJECT_NAME>IRIDIUM 170</OBJECT_NAME><OBJECT_ID>2019-002J</OBJECT_ID><CENTER_NAME>EARTH</CENTER_NAME><REF_FRAME>TEME</REF_FRAME><TIME_SYSTEM>UTC</TIME_SYSTEM><MEAN_ELEMENT_THEORY>SGP4</MEAN_ELEMENT_THEORY></metadata><data><meanElements><EPOCH>2025-10-30T21:50:31.930656</EPOCH><MEAN_MOTION>14.72255201</MEAN_MOTION><ECCENTRICITY>.00022563</ECCENTRICITY><INCLINATION>86.6052</INCLINATION><RA_OF_ASC_NODE>89.4292</RA_OF_ASC_NODE><ARG_OF_PERICENTER>90.0151</ARG_OF_PERICENTER><MEAN_ANOMALY>270.1325</MEAN_ANOMALY></meanElements><tleParameters><EPHEMERIS_TYPE>0</EPHEMERIS_TYPE><CLASSIFICATION_TYPE>U</CLASSIFICATION_TYPE><NORAD_CAT_ID>43930</NORAD_CAT_ID><ELEMENT_SET_NO>999</ELEMENT_SET_NO><REV_AT_EPOCH>36552</REV_AT_EPOCH><BSTAR>.25849474E-3</BSTAR><MEAN_MOTION_DOT>.1655E-4</MEAN_MOTION_DOT><MEAN_MOTION_DDOT>0</MEAN_MOTION_DDOT></tleParameters></data></segment></body></omm>
<omm id="CCSDS_OMM_VERS" version="2.0">
<header><CREATION_DATE/><ORIGINATOR/></header><body><segment><metadata><OBJECT_NAME>IRIDIUM 167</OBJECT_NAME><OBJECT_ID>2019-002K</OBJECT_ID><CENTER_NAME>EARTH</CENTER_NAME><REF_FRAME>TEME</REF_FRAME><TIME_SYSTEM>UTC</TIME_SYSTEM><MEAN_ELEMENT_THEORY>SGP4</MEAN_ELEMENT_THEORY></metadata><data><meanElements><EPOCH>2025-10-30T21:29:42.819072</EPOCH><MEAN_MOTION>14.34218178</MEAN_MOTION><ECCENTRICITY>.00016459</ECCENTRICITY><INCLINATION>86.3930</INCLINATION><RA_OF_ASC_NODE>89.4515</RA_OF_ASC_NODE><ARG_OF_PERICENTER>89.2023</ARG_OF_PERICENTER><MEAN_ANOMALY>270.9362</MEAN_ANOMALY></meanElements><tleParameters><EPHEMERIS_TYPE>0</EPHEMERIS_TYPE><CLASSIFICATION_TYPE>U</CLASSIFICATION_TYPE><NORAD_CAT_ID>43931</NORAD_CAT_ID><ELEMENT_SET_NO>999</ELEMENT_SET_NO><REV_AT_EPOCH>35609</REV_AT_EPOCH><BSTAR>.49979123E-4</BSTAR><MEAN_MOTION_DOT>.16E-5</MEAN_MOTION_DOT><MEAN_MOTION_DDOT>0</MEAN_MOTION_DDOT></tleParameters></data></segment></body></omm>
<omm id="CCSDS_OMM_VERS" version="2.0">
<header><CREATION_DATE/><ORIGINATOR/></header><body><segment><metadata><OBJECT_NAME>IRIDIUM 181</OBJECT_NAME><OBJECT_ID>2023-068S</OBJECT_ID><CENTER_NAME>EARTH</CENTER_NAME><REF_FRAME>TEME</REF_FRAME><TIME_SYSTEM>UTC</TIME_SYSTEM><MEAN_ELEMENT_THEORY>SGP4</MEAN_ELEMENT_THEORY></metadata><data><meanElements><EPOCH>2025-10-31T02:40:38.885088</EPOCH><MEAN_MOTION>14.43321119</MEAN_MOTION><ECCENTRICITY>.00019551</ECCENTRICITY><INCLINATION>86.4521</INCLINATION><RA_OF_ASC_NODE>152.5290</RA_OF_ASC_NODE><ARG_OF_PERICENTER>102.2128</ARG_OF_PERICENTER><MEAN_ANOMALY>257.9292</MEAN_ANOMALY></meanElements><tleParameters><EPHEMERIS_TYPE>0</EPHEMERIS_TYPE><CLASSIFICATION_TYPE>U</CLASSIFICATION_TYPE><NORAD_CAT_ID>56726</NORAD_CAT_ID><ELEMENT_SET_NO>999</ELEMENT_SET_NO><REV_AT_EPOCH>12939</REV_AT_EPOCH><BSTAR>.1359993E-3</BSTAR><MEAN_MOTION_DOT>.478E-5</MEAN_MOTION_DOT><MEAN_MOTION_DDOT>0</MEAN_MOTION_DDOT></tleParameters></data></segment></body></omm>
<omm id="CCSDS_OMM_VERS" version="2.0">
<header><CREATION_DATE/><ORIGINATOR/></header><body><segment><metadata><OBJECT_NAME>IRIDIUM 177</OBJECT_NAME><OBJECT_ID>2023-068T</OBJECT_ID><CENTER_NAME>EARTH</CENTER_NAME><REF_FRAME>TEME</REF_FRAME><TIME_SYSTEM>UTC</TIME_SYSTEM><MEAN_ELEMENT_THEORY>SGP4</MEAN_ELEMENT_THEORY></metadata><data><meanElements><EPOCH>2025-10-30T14:41:44.632032</EPOCH><MEAN_MOTION>14.80233522</MEAN_MOTION><ECCENTRICITY>.00022286</ECCENTRICITY><INCLINATION>86.1941</INCLINATION><RA_OF_ASC_NODE>77.8100</RA_OF_ASC_NODE><ARG_OF_PERICENTER>86.8235</ARG_OF_PERICENTER><MEAN_ANOMALY>273.3241</MEAN_ANOMALY></meanElements><tleParameters><EPHEMERIS_TYPE>0</EPHEMERIS_TYPE><CLASSIFICATION_TYPE>U</CLASSIFICATION_TYPE><NORAD_CAT_ID>56727</NORAD_CAT_ID><ELEMENT_SET_NO>999</ELEMENT_SET_NO><REV_AT_EPOCH>13240</REV_AT_EPOCH><BSTAR>.22715218E-3</BSTAR><MEAN_MOTION_DOT>.1753E-4</MEAN_MOTION_DOT><MEAN_MOTION_DDOT>0</MEAN_MOTION_DDOT></tleParameters></data></segment></body></omm>
<omm id="CCSDS_OMM_VERS" version="2.0">
<header><CREATION_DATE/><ORIGINATOR/></header><body><segment><metadata><OBJECT_NAME>IRIDIUM 174</OBJECT_NAME><OBJECT_ID>2023-068U</OBJECT_ID><CENTER_NAME>EARTH</CENTER_NAME><REF_FRAME>TEME</REF_FRAME><TIME_SYSTEM>UTC</TIME_SYSTEM><MEAN_ELEMENT_THEORY>SGP4</MEAN_ELEMENT_THEORY></metadata><data><meanElements><EPOCH>2025-10-30T21:32:43.465920</EPOCH><MEAN_MOTION>14.72244423</MEAN_MOTION><ECCENTRICITY>.00025426</ECCENTRICITY><INCLINATION>86.6056</INCLINATION><RA_OF_ASC_NODE>89.5579</RA_OF_ASC_NODE><ARG_OF_PERICENTER>82.1394</ARG_OF_PERICENTER><MEAN_ANOMALY>278.0112</MEAN_ANOMALY></meanElements><tleParameters><EPHEMERIS_TYPE>0</EPHEMERIS_TYPE><CLASSIFICATION_TYPE>U</CLASSIFICATION_TYPE><NORAD_CAT_ID>56728</NORAD_CAT_ID><ELEMENT_SET_NO>999</ELEMENT_SET_NO><REV_AT_EPOCH>13228</REV_AT_EPOCH><BSTAR>.26238372E-3</BSTAR><MEAN_MOTION_DOT>.1679E-4</MEAN_MOTION_DOT><MEAN_MOTION_DDOT>0</MEAN_MOTION_DDOT></tleParameters></data></segment></body></omm>
<omm id="CCSDS_OMM_VERS" version="2.0">
<header><CREATION_DATE/><ORIGINATOR/></header><body><segment><metadata><OBJECT_NAME>IRIDIUM 178</OBJECT_NAME><OBJECT_ID>2023-068V</OBJECT_ID><CENTER_NAME>EARTH</CENTER_NAME><REF_FRAME>TEME</REF_FRAME><TIME_SYSTEM>UTC</TIME_SYSTEM><MEAN_ELEMENT_THEORY>SGP4</MEAN_ELEMENT_THEORY></metadata><data><meanElements><EPOCH>2025-10-30T22:32:46.468608</EPOCH><MEAN_MOTION>14.80227556</MEAN_MOTION><ECCENTRICITY>.00019714</ECCENTRICITY><INCLINATION>86.6504</INCLINATION><RA_OF_ASC_NODE>121.1859</RA_OF_ASC_NODE><ARG_OF_PERICENTER>87.0281</ARG_OF_PERICENTER><MEAN_ANOMALY>273.1166</MEAN_ANOMALY></meanElements><tleParameters><EPHEMERIS_TYPE>0</EPHEMERIS_TYPE><CLASSIFICATION_TYPE>U</CLASSIFICATION_TYPE><NORAD_CAT_ID>56729</NORAD_CAT_ID><ELEMENT_SET_NO>999</ELEMENT_SET_NO><REV_AT_EPOCH>13245</REV_AT_EPOCH><BSTAR>.41822492E-4</BSTAR><MEAN_MOTION_DOT>.344E-5</MEAN_MOTION_DOT><MEAN_MOTION_DDOT>0</MEAN_MOTION_DDOT></tleParameters></data></segment></body></omm>
<omm id="CCSDS_OMM_VERS" version="2.0">
<header><CREATION_DATE/><ORIGINATOR/></header><body><segment><metadata><OBJECT_NAME>IRIDIUM 179</OBJECT_NAME><OBJECT_ID>2023-068W</OBJECT_ID><CENTER_NAME>EARTH</CENTER_NAME><REF_FRAME>TEME</REF_FRAME><TIME_SYSTEM>UTC</TIME_SYSTEM><MEAN_ELEMENT_THEORY>SGP4</MEAN_ELEMENT_THEORY></metadata><data><meanElements><EPOCH>2025-10-30T22:25:02.036640</EPOCH><MEAN_MOTION>14.80238455</MEAN_MOTION><ECCENTRICITY>.00015941</ECCENTRICITY><INCLINATION>86.6759</INCLINATION><RA_OF_ASC_NODE>129.4803</RA_OF_ASC_NODE><ARG_OF_PERICENTER>88.4203</ARG_OF_PERICENTER><MEAN_ANOMALY>271.7201</MEAN_ANOMALY></meanElements><tleParameters><EPHEMERIS_TYPE>0</EPHEMERIS_TYPE><CLASSIFICATION_TYPE>U</CLASSIFICATION_TYPE><NORAD_CAT_ID>56730</NORAD_CAT_ID><ELEMENT_SET_NO>999</ELEMENT_SET_NO><REV_AT_EPOCH>13245</REV_AT_EPOCH><BSTAR>.11528427E-3</BSTAR><MEAN_MOTION_DOT>.902E-5</MEAN_MOTION_DOT><MEAN_MOTION_DDOT>0</MEAN_MOTION_DDOT></tleParameters></data></segment></body></omm>
</ndm>
